STARLINK-31450          
1 59006U 24036J   26068.28780625  .00000146  00000+0  17071-4 0  9995
2 59006  53.1606  79.8551 0001324  88.4160 271.6992 15.30189795115264
FLOCK 4BE-27            
1 60513U 24149AX  26068.75339182  .00011439  00000+0  36576-3 0  9992
2 60513  97.3862 150.6783 0002732 305.8980  54.2008 15.32593322 86906
